OBJECT_NAME,OBJECT_ID,EPOCH,MEAN_MOTION,ECCENTRICITY,INCLINATION,RA_OF_ASC_NODE,ARG_OF_PERICENTER,MEAN_ANOMALY,EPHEMERIS_TYPE,CLASSIFICATION_TYPE,NORAD_CAT_ID,ELEMENT_SET_NO,REV_AT_EPOCH,BSTAR,MEAN_MOTION_DOT,MEAN_MOTION_DDOT
GSAT0220 (GALILEO 24),2018-060D,2024-01-19T06:16:32.087136,1.70475422,.0005456,57.3023,5.5089,289.4597,70.4832,0,U,43567,999,3417,0,-.86E-6,0
BEIDOU-3 M13,2018-072A,2024-01-20T00:07:52.395456,1.86231052,.0007281,55.8745,91.8606,285.2033,74.7544,0,U,43622,999,3628,0,-.69E-6,0
BEIDOU-3 M14,2018-072B,2024-01-20T09:47:20.345568,1.86231075,.0004514,55.8768,91.8400,305.5526,54.4438,0,U,43623,999,3628,0,-.71E-6,0
GPS BIII-2,2019-056A,2024-01-20T09:22:13.825920,2.00568758,.0038759,55.8382,5.9716,190.7191,338.3809,0,U,44506,999,3244,0,-.9E-6,0
BEIDOU-3 M23,2019-061A,2024-01-19T17:05:14.834400,1.86231298,.0008641,54.4637,212.4105,12.7167,347.3346,0,U,44542,999,2941,0,.111E-5,0
BEIDOU-3 M24,2019-061B,2024-01-20T11:11:11.105664,1.86231647,.0005338,54.4622,212.3538,12.2103,45.5019,0,U,44543,999,2943,0,.11E-5,0
BEIDOU-3 M21,2019-078A,2024-01-20T02:16:02.675424,1.86231959,.0006712,54.6695,330.5365,9.3711,350.6356,0,U,44793,999,2827,0,-.11E-5,0
BEIDOU-3 M22,2019-078B,2024-01-19T03:37:07.521600,1.86232431,.0004806,54.6442,330.5485,358.8946,1.1006,0,U,44794,999,2826,0,-.106E-5,0
ELEKTRO-L 3,2019-095A,2024-01-20T11:25:35.536800,1.00274082,.0001333,0.0806,277.9931,20.6243,68.1258,0,U,44903,999,1489,0,-.93E-6,0
GPS BIII-3,2020-041A,2024-01-20T08:09:53.478720,2.00560304,.0040036,55.9982,63.2797,192.5122,241.2825,0,U,45854,999,2641,0,-.66E-6,0
COSMOS 2547,2020-075A,2024-01-20T11:43:59.179296,2.13102921,.000531,64.6059,221.8627,235.2002,124.8016,0,U,46805,999,2518,0,.112E-5,0
GPS BIII-4,2020-078A,2024-01-20T00:44:42.636192,2.00561877,.0039207,54.2436,246.4688,193.2694,354.0738,0,U,46826,999,2387,0,.58E-6,0
GSAT0223 (GALILEO 27),2021-116A,2024-01-20T13:49:31.887264,1.70475649,.0003162,57.2934,5.3687,254.3238,282.7639,0,U,49809,999,1320,0,-.9E-6,0
GSAT0224 (GALILEO 28),2021-116B,2024-01-20T09:13:30.417312,1.70475670,.0002626,57.2944,5.3722,263.2842,268.6578,0,U,49810,999,1322,0,-.89E-6,0
GOES 18,2022-021A,2024-01-19T10:39:28.950048,1.00272603,.0000637,0.0218,176.3277,73.8309,251.0249,0,U,51850,999,696,0,.102E-5,0
